[{"OBJECT_NAME":"KUIPER-00065","OBJECT_ID":"2025-134AB","EPOCH":"2026-03-09T16:33:07.968384","MEAN_MOTION":14.799424,"ECCENTRICITY":7.199e-5,"INCLINATION":51.9035,"RA_OF_ASC_NODE":240.6799,"ARG_OF_PERICENTER":80.086,"MEAN_ANOMALY":280.0184,"EPHEMERIS_TYPE":0,"CLASSIFICATION_TYPE":"U","NORAD_CAT_ID":64525,"ELEMENT_SET_NO":999,"REV_AT_EPOCH":3995,"BSTAR":0.00062633885,"MEAN_MOTION_DOT":4.558e-5,"MEAN_MOTION_DDOT":0},{"OBJECT_NAME":"FENGYUN 1C DEB","OBJECT_ID":"1999-025BSM","EPOCH":"2026-03-04T01:17:28.795200","MEAN_MOTION":14.37426599,"ECCENTRICITY":0.01980785,"INCLINATION":98.4859,"RA_OF_ASC_NODE":150.4368,"ARG_OF_PERICENTER":149.2694,"MEAN_ANOMALY":212.027,"EPHEMERIS_TYPE":0,"CLASSIFICATION_TYPE":"U","NORAD_CAT_ID":31381,"ELEMENT_SET_NO":999,"REV_AT_EPOCH":98568,"BSTAR":0.00092601763,"MEAN_MOTION_DOT":3.425e-5,"MEAN_MOTION_DDOT":0}]
